[{"OBJECT_NAME":"JUGNU","OBJECT_ID":"2011-058B","EPOCH":"2026-03-09T11:56:36.486528","MEAN_MOTION":14.1374078,"ECCENTRICITY":0.00187632,"INCLINATION":19.9594,"RA_OF_ASC_NODE":194.0637,"ARG_OF_PERICENTER":55.3849,"MEAN_ANOMALY":14.6148,"EPHEMERIS_TYPE":0,"CLASSIFICATION_TYPE":"U","NORAD_CAT_ID":37839,"ELEMENT_SET_NO":999,"REV_AT_EPOCH":74490,"BSTAR":0.00014293025,"MEAN_MOTION_DOT":5.41e-6,"MEAN_MOTION_DDOT":0},{"OBJECT_NAME":"CZ-6A DEB","OBJECT_ID":"2022-151AGA","EPOCH":"2026-03-09T11:12:28.971072","MEAN_MOTION":14.16211666,"ECCENTRICITY":0.00439099,"INCLINATION":98.8312,"RA_OF_ASC_NODE":74.434,"ARG_OF_PERICENTER":245.3317,"MEAN_ANOMALY":114.3282,"EPHEMERIS_TYPE":0,"CLASSIFICATION_TYPE":"U","NORAD_CAT_ID":56650,"ELEMENT_SET_NO":999,"REV_AT_EPOCH":15674,"BSTAR":0.0012889477,"MEAN_MOTION_DOT":2.532e-5,"MEAN_MOTION_DDOT":0}]
